[{"OBJECT_NAME":"OBJECT F","OBJECT_ID":"2023-072F","EPOCH":"2026-03-09T23:31:37.259904","MEAN_MOTION":15.29470958,"ECCENTRICITY":0.00062878,"INCLINATION":97.5173,"RA_OF_ASC_NODE":265.798,"ARG_OF_PERICENTER":19.0017,"MEAN_ANOMALY":341.1456,"EPHEMERIS_TYPE":0,"CLASSIFICATION_TYPE":"U","NORAD_CAT_ID":56748,"ELEMENT_SET_NO":999,"REV_AT_EPOCH":15460,"BSTAR":0.00043416252,"MEAN_MOTION_DOT":0.00012341,"MEAN_MOTION_DDOT":0},{"OBJECT_NAME":"STARLINK-33861","OBJECT_ID":"2025-085Q","EPOCH":"2026-03-09T06:32:23.241408","MEAN_MOTION":15.27562016,"ECCENTRICITY":0.00010123,"INCLINATION":43.0041,"RA_OF_ASC_NODE":33.4868,"ARG_OF_PERICENTER":284.1161,"MEAN_ANOMALY":75.9579,"EPHEMERIS_TYPE":0,"CLASSIFICATION_TYPE":"U","NORAD_CAT_ID":63678,"ELEMENT_SET_NO":999,"REV_AT_EPOCH":4879,"BSTAR":0.0010495844,"MEAN_MOTION_DOT":0.00028717,"MEAN_MOTION_DDOT":0}]
